{
  "type": "FeatureCollection",
  "timeStamp": "2024-02-24T12:00:00Z",
  "features": [
    {
      "type": "Feature",
      "id": "building_001",
      "geometry": {
        "type": "Point",
        "coordinates": [
          5.0,
          52.0
        ]
      },
      "properties": {
        "start_time": "2018-01-01T00:00:00Z",
        "end_time": "2018-12-31T23:00:00Z",
        "resolution": "60",
        "resolution_unit": "minutes",
        "buem": {
          "building": {
            "name": "building_001",
            "A_ref": {
              "value": 100.0,
              "unit": "m2"
            },
            "h_room": {
              "value": 2.5,
              "unit": "m"
            },
            "envelope": {
              "elements": [
                {
                  "id": "Wall_North",
                  "type": "wall",
                  "area": {
                    "value": 30.0,
                    "unit": "m2"
                  },
                  "azimuth": {
                    "value": 0.0,
                    "unit": "deg"
                  },
                  "tilt": {
                    "value": 90.0,
                    "unit": "deg"
                  },
                  "U": {
                    "value": 1.6,
                    "unit": "W/(m2K)"
                  }
                },
                {
                  "id": "Wall_East",
                  "type": "wall",
                  "area": {
                    "value": 25.0,
                    "unit": "m2"
                  },
                  "azimuth": {
                    "value": 90.0,
                    "unit": "deg"
                  },
                  "tilt": {
                    "value": 90.0,
                    "unit": "deg"
                  },
                  "U": {
                    "value": 1.4,
                    "unit": "W/(m2K)"
                  }
                },
                {
                  "id": "Wall_South",
                  "type": "wall",
                  "area": {
                    "value": 30.0,
                    "unit": "m2"
                  },
                  "azimuth": {
                    "value": 180.0,
                    "unit": "deg"
                  },
                  "tilt": {
                    "value": 90.0,
                    "unit": "deg"
                  },
                  "U": {
                    "value": 1.6,
                    "unit": "W/(m2K)"
                  }
                },
                {
                  "id": "Wall_West",
                  "type": "wall",
                  "area": {
                    "value": 25.0,
                    "unit": "m2"
                  },
                  "azimuth": {
                    "value": 270.0,
                    "unit": "deg"
                  },
                  "tilt": {
                    "value": 90.0,
                    "unit": "deg"
                  },
                  "U": {
                    "value": 1.6,
                    "unit": "W/(m2K)"
                  }
                },
                {
                  "id": "Roof_Main",
                  "type": "roof",
                  "area": {
                    "value": 100.0,
                    "unit": "m2"
                  },
                  "azimuth": {
                    "value": 180.0,
                    "unit": "deg"
                  },
                  "tilt": {
                    "value": 30.0,
                    "unit": "deg"
                  },
                  "U": {
                    "value": 1.2,
                    "unit": "W/(m2K)"
                  }
                },
                {
                  "id": "Floor_Ground",
                  "type": "floor",
                  "area": {
                    "value": 100.0,
                    "unit": "m2"
                  },
                  "azimuth": {
                    "value": 0.0,
                    "unit": "deg"
                  },
                  "tilt": {
                    "value": 0.0,
                    "unit": "deg"
                  },
                  "U": {
                    "value": 1.5,
                    "unit": "W/(m2K)"
                  }
                },
                {
                  "id": "Window_North",
                  "type": "window",
                  "area": {
                    "value": 6.0,
                    "unit": "m2"
                  },
                  "azimuth": {
                    "value": 0.0,
                    "unit": "deg"
                  },
                  "tilt": {
                    "value": 90.0,
                    "unit": "deg"
                  },
                  "parent_id": "Wall_North",
                  "U": {
                    "value": 2.8,
                    "unit": "W/(m2K)"
                  },
                  "g_gl": {
                    "value": 0.6,
                    "unit": "-"
                  }
                },
                {
                  "id": "Window_South",
                  "type": "window",
                  "area": {
                    "value": 8.0,
                    "unit": "m2"
                  },
                  "azimuth": {
                    "value": 180.0,
                    "unit": "deg"
                  },
                  "tilt": {
                    "value": 90.0,
                    "unit": "deg"
                  },
                  "parent_id": "Wall_South",
                  "U": {
                    "value": 2.8,
                    "unit": "W/(m2K)"
                  },
                  "g_gl": {
                    "value": 0.6,
                    "unit": "-"
                  }
                },
                {
                  "id": "Window_East",
                  "type": "window",
                  "area": {
                    "value": 4.0,
                    "unit": "m2"
                  },
                  "azimuth": {
                    "value": 90.0,
                    "unit": "deg"
                  },
                  "tilt": {
                    "value": 90.0,
                    "unit": "deg"
                  },
                  "parent_id": "Wall_East",
                  "U": {
                    "value": 2.5,
                    "unit": "W/(m2K)"
                  },
                  "g_gl": {
                    "value": 0.6,
                    "unit": "-"
                  }
                },
                {
                  "id": "Door_Main",
                  "type": "door",
                  "area": {
                    "value": 2.0,
                    "unit": "m2"
                  },
                  "azimuth": {
                    "value": 0.0,
                    "unit": "deg"
                  },
                  "tilt": {
                    "value": 90.0,
                    "unit": "deg"
                  },
                  "parent_id": "Wall_North",
                  "U": {
                    "value": 3.0,
                    "unit": "W/(m2K)"
                  }
                }
              ]
            }
          },
          "use_milp": false
        }
      }
    }
  ]
}
